address_id;address;secondary_address;city;state;zip;country
1;76623 Bruen Groves;;Port Augustine;NM;65606-4222;USA
2;339 Pasty Club;;North Johnhaven;AZ;80067-6052;USA
3;237 Osinski Mountain;;East Pedro;PA;89987;USA
4;400 Earle Ports;;Tobiland;CO;80148;USA
5;8716 Elfrieda Pines;;Rohanview;MI;43759;USA
6;7897 Jordon Bypass;;Franeckibury;TX;60692;USA
7;192 Davina Cove;;Gleasonstad;MS;05618;USA
8;1260 Murazik Squares;;Goodwinshire;AR;35795;USA
9;33779 O'Keefe Tunnel;;East Gregchester;MO;93028;USA
10;9975 Phung Center;;Merlinburgh;ME;84018;USA
11;488 Collins Springs;;Port Aurelio;NY;45179-1311;USA
12;7635 Billie Harbors;Apt. 159;East Allenstad;IA;30779-3036;USA
13;78271 Orn Dale;;Ernserland;CA;61623;USA
14;666 Tressa Fords;;Lake Carroll;ND;66875-5086;USA
15;270 VonRueden Creek;;New Saulborough;CA;06591;USA
16;2157 Luther Alley;;Port Nery;GA;66165-0992;USA
17;278 Geralyn Glen;;Shelbyport;GA;59084;USA
18;2364 Daysi Gateway;;Howeberg;NM;20795-2927;USA
19;912 Thiel Via;;Gleasonberg;SD;68631-8248;USA
20;981 Rau Highway;;New Chan;MD;73004;USA
21;58560 Gleason Lane;;Volkmanland;AL;80766-9208;USA
22;857 Abshire Junctions;;Theaville;UT;42657;USA
23;68091 Chung Way;Suite 419;Jonesstad;UT;53964;USA
24;746 Crooks Stream;;Bechtelarburgh;MS;01866;USA
25;821 Schoen Lodge;;New Lou;MD;61420-2331;USA
26;610 Langworth Keys;;Ortizside;CT;75155-5015;USA
27;91262 Morton Tunnel;;Oraliashire;SC;55442-0988;USA
28;4396 Hills Pike;;West Shantellton;NJ;09776-6966;USA
29;453 Satterfield Mountains;;Lake Burtonville;CA;14243-5623;USA
30;74449 Brown Mills;;East Michaleshire;MI;14814;USA
31;9475 Douglas Plaza;;Hillbury;AL;42978-8058;USA
32;386 Fermin Island;;New Hunterview;GA;44206-3972;USA
33;847 Jacobs Center;;Chantayshire;AK;10568;USA
34;41727 Toni Dam;;New Raymonde;NC;67549;USA
35;849 Amado Coves;;Khadijahfurt;SC;53152;USA
36;5524 Aldo Springs;;Bartellport;CA;88124-4389;USA
37;847 Garland Keys;;East Ira;ID;78614;USA
38;56143 Kris Manor;;Port Marcelenehaven;CA;84573-9924;USA
39;982 Spinka Drive;;South Clifford;CA;38993-5575;USA
40;8547 Herschel Stream;;Kertzmannside;NE;04805-1286;USA
41;507 Lakin Neck;;West Tyron;NH;30825;USA
42;97379 Ignacio Canyon;;Port Hugoside;VT;28478-9492;USA
43;7536 Thad Valley;;West Peggie;WY;35752-6978;USA
44;642 Lakin Route;;North Portia;DE;19327;USA
45;658 Aufderhar Parks;;Lake Bradleymouth;NV;66923-1303;USA
46;531 Bayer Valleys;;South Thomasville;MS;42664;USA
47;6248 Anja Loop;;VonRuedenfurt;NJ;47578-8332;USA
48;69998 Mertz Ridges;;Chadburgh;NY;59831;USA
49;89981 Johnny Mountain;;Quitzonview;KS;17748;USA
50;67394 Braun Forest;;South Antwan;MT;08074-1332;USA
51;54495 Hilpert Motorway;;O'Konview;FL;82871;USA
52;3732 Hal Run;;Raynorfurt;RI;76977-5451;USA
53;475 Ferry Square;;Lake Kelly;KS;07683;USA
54;20354 Prosacco Causeway;;Port Hipolitoside;OH;84613-3287;USA
55;9819 Upton Square;;Stromanside;SC;79710;USA
56;3570 Sauer Bridge;;Willshire;ME;89417;USA
57;64784 Colene Locks;;Howardshire;NE;47859-6930;USA
58;99494 Forrest Falls;;New Wernerville;CT;61144;USA
59;2812 Bode Circles;;Katherynfurt;AL;45708;USA
60;19797 Jon Rapids;;North Anneliesechester;WY;35269-3140;USA
61;1661 Kunze Hills;;Rigobertoberg;NJ;96682;USA
62;427 Virgil Street;;East Ingehaven;MS;98147;USA
63;986 Leffler Creek;;New Patrina;DE;10177;USA
64;538 McClure Walk;;Tamamouth;WA;85213;USA
65;9418 Darell Tunnel;;Tommiefurt;MO;55412-1474;USA
66;2996 Morissette Vista;;Jeromyville;VA;24514-4115;USA
67;557 Gleason Route;;Blocktown;NY;85437-6772;USA
68;98128 Lang Port;;Port Cletus;ID;14630;USA
69;7922 Sasha Islands;;West Shannonstad;KY;11006-6196;USA
70;283 Anderson Islands;;North Colin;MI;71493;USA
71;21960 Samantha Fields;;South Columbusburgh;CT;82014;USA
72;8760 Kelsie Mountain;;Wisozkhaven;WI;37171;USA
73;2210 Lang Points;;West Alainashire;AB;69730;CAN
74;60130 Eugenio Highway;;Lake Cristina;KS;53883;USA
75;661 Hahn Glens;;Socorromouth;HI;52859-8840;USA
76;53039 Zboncak Spurs;;Wisozkview;OR;01498-5263;USA
77;5522 Jacquelyn Walks;;East Al;TX;38446-0483;USA
78;52467 Mirella Drive;Apt. 961;Ortizfort;HI;96445;USA
79;328 DuBuque Centers;;Garnettbury;GA;81030;USA
80;77007 Altenwerth Route;;West Erlene;IL;84891-9918;USA
81;823 Glover Divide;;Jamestown;IN;20255;USA
82;1687 Traci Track;;Konopelskibury;KS;74086;USA
83;32017 Jenkins Inlet;;New Johnathon;OK;79706;USA
84;345 Prosacco Estates;;Lake Rosanne;FL;40150;USA
85;5278 Chase Common;;Mannfurt;UT;28503-7129;USA
86;44604 Macejkovic Station;;Jamaalside;IN;64338;USA
87;78098 Ligia Prairie;;New Shelton;MN;78943-3745;USA
88;793 Jin Creek;;East Edgardo;OR;87928-1226;USA
89;8872 Huong Motorway;;O'Haraside;CO;62052;USA
90;74140 Stark Isle;;Willmsside;OR;45405-7533;USA
91;361 Natalia Pine;;South Lanatown;WA;08243;USA
92;1815 Romaguera Flats;;Elvaport;OR;83918-3811;USA
93;994 Murphy Forges;;West Winfredside;AR;99240;USA
94;147 Auer Club;;Port Yevette;OH;88938;USA
95;4164 Marilou Burg;;West Genevievemouth;LA;27646;USA
96;15247 Hand Roads;;South Gabriellaville;AR;66025-6782;USA
97;5475 Bednar Views;Apt. 912;South Ollie;AK;83065-1347;USA
98;9100 Ervin Trail;;New Orenhaven;CO;76416;USA
99;404 Upton Station;;East Pastyside;MD;74255-0834;USA
100;574 Ruth Gardens;;West Toraborough;TX;02254;USA
101;963 Emmanuel Passage;;Port Polly;IN;95122-4662;USA
102;96165 Dominick Prairie;;Efrenmouth;MO;57601-6670;USA
103;228 Teodoro Valleys;;Lake Forestside;MS;71130-2263;USA
104;40371 Ratke Squares;;East Ezequielhaven;TN;22854;USA
105;94065 Abbott Circle;;Langworthfurt;WY;73923;USA
106;5373 Giovanna Stravenue;;West Catriceside;NC;41132-3438;USA
107;7886 Ullrich Via;;Port Alanland;MN;80801-5434;USA
108;432 Gina Mews;Suite 974;West Shellaview;HI;34860;USA
109;7739 Reed Spurs;;South Eugenio;TX;18967-7935;USA
110;7832 Santo Viaduct;;North Faustino;VT;21041-8392;USA
111;904 Brandon Village;;South Ron;NH;82517;USA
112;2806 Melina Viaduct;;East Nenitaside;WA;90963;USA
113;855 Deckow Coves;;New Mindyfort;HI;40124-0186;USA
114;93356 Aliza Views;;Ezekielmouth;SD;17537;USA
115;5847 Katelynn Ramp;;Blandahaven;WA;60870;USA
116;39101 Frankie Ferry;;Runolfssonfurt;TX;89407-1703;USA
117;5186 Napoleon Avenue;;Nedview;PA;95310-9030;USA
118;8704 Ivelisse Shores;;Port Gabriellaberg;IN;43521-1968;USA
119;5429 Wolff Ridge;Suite 325;Manuelton;CA;20243-4240;USA
120;1515 Shila Junctions;;Pearlieview;AL;11646-8968;USA
121;786 Thiel Station;;New Gabriel;TX;24330;USA
122;38586 Jeffry Stravenue;;East Courtneyfort;CA;74446-1562;USA
123;436 Ruben Pass;;New Reuben;WV;02113;USA
124;6181 Jarod Mountain;;Fritschfurt;WI;01378;USA
125;565 Donnelly Meadow;;Lake Raulport;CO;44313-1080;USA
126;71417 Schaefer Street;;North Sunny;SC;43061;USA
127;52401 Kayce Parkways;;North Shad;TN;40354;USA
128;7195 Adrien Wells;;Joanstad;NE;57372;USA
129;70277 Nicolle Drive;;Koryshire;SD;39950;USA
130;15081 Dionne Terrace;;Seymourside;KS;09273-4848;USA
131;1240 Terry Roads;Apt. 719;Kleinfort;VA;19745;USA
132;252 Witting Estate;;South Benedict;WA;34406;USA
133;139 Angila Wall;;Calebland;AZ;21809;USA
134;6130 Mann Club;;Westontown;CA;47449-2944;USA
135;83923 Erdman Rest;;North Cherieland;HI;38109-8813;USA
136;91282 Schmitt Flats;;Lynetteshire;MA;53755-5365;USA
137;674 Bergstrom Course;;Borerhaven;WI;95640-8738;USA
138;6282 Vivienne Vista;;Kirlinview;MA;68897-0939;USA
139;943 Lauren Gardens;;West Tequilafort;TX;79437;USA
140;73703 Connelly Tunnel;;Lake Earnest;IL;40326;USA
141;6264 McClure Bridge;;West Jeanine;SD;53042-4918;USA
142;8818 Bailey Pine;;East Allenfort;MN;63628;USA
143;26845 Delmy Ramp;;East Harvey;WA;87399-8237;USA
144;637 Billie Islands;;Walkerport;NE;55351-9871;USA
145;13739 Greenholt Center;;Port James;AR;58900;USA
146;968 Murray Station;;Shandiborough;AR;45372;USA
147;97479 Rau Cliffs;;Framibury;AL;53529;USA
148;3302 Norris Lane;;New Sixtaton;ND;68312;USA
149;286 Torphy Wall;;Port Sandy;IL;31196-1004;USA
150;98674 Metz Street;;Port Laneport;IA;23745;USA
151;821 Gorczany Greens;Suite 915;South Maribeth;DE;16285;USA
152;507 Tillman Street;;East Pamula;MS;00011;USA
153;5979 Guadalupe Point;;North Esperanzaville;GA;68616;USA
154;12845 Dennis Spurs;;Odahaven;NV;09384-6295;USA
155;93045 D'Amore Centers;Suite 878;West Yen;MI;52705;USA
156;723 Joey Spurs;;Meaghanburgh;CT;69200;USA
157;712 Noella Pike;;Port Oliveberg;ME;75674-6496;USA
158;39344 Bryanna Well;;South Jerrell;IL;54084-7225;USA
159;216 Debi Spur;;East Jonasborough;SC;83822-2973;USA
160;49666 Page Mission;;Kuhicmouth;WV;79658;USA
161;170 O'Conner Parks;;Anamariastad;AZ;27189;USA
162;9101 Damaris Way;;Wilmerfurt;UT;12986-6893;USA
163;193 Hunter Road;;South Lamontborough;NH;26516;USA
164;325 Gusikowski Lake;;West Bobbie;MS;78229-4875;USA
165;241 Victor Cliff;Suite 318;Erniebury;TN;23565;USA
166;7547 Borer Motorway;;Andriastad;IL;49383-4368;USA
167;518 Murazik Terrace;Suite 196;West Rod;NY;31577-1542;USA
168;2483 Jerde Greens;;Harrisonmouth;AR;16441;USA
169;58618 Nicolas Village;;Alexiafort;GA;23814;USA
170;666 Logan Rapid;;North Arletta;CA;69093;USA
171;14786 Abshire Ports;;Port George;MS;08436-2231;USA
172;31598 Barton Wall;;Myriamfort;PA;55416;USA
173;131 Jakubowski Skyway;;North Charlieside;RI;35870-0228;USA
174;594 Bradtke Burgs;;Darioborough;PA;79942;USA
175;30980 Buckridge Views;;Satterfieldfort;NM;82789;USA
176;3719 Johnny Passage;;East Sherrellville;SD;25338;USA
177;65780 Cruz Mission;;Antionefort;AL;54564;USA
178;44016 Tremblay Harbors;;New Shanebury;CT;98231;USA
179;569 Jolynn Meadow;;Ritchieport;TN;92487;USA
180;865 Hintz Grove;;Bogisichfurt;CO;49046-1804;USA
181;749 Granville Plains;;Pfefferfurt;WI;57516-7825;USA
182;64278 Mueller Plains;;Lake Deandre;AK;82412-6314;USA
183;566 Durgan Isle;;Lake Jamar;VA;54664-2066;USA
184;1833 Gleason Parks;;South Harveyport;OR;55695;USA
185;29356 Dibbert Freeway;;Port Diamond;SD;69350-0747;USA
186;23204 Gulgowski Camp;;East Damien;DE;49798;USA
187;95230 Thompson Points;;New Jarrod;CT;31316-7096;USA
188;104 Bailey Drive;;Lake Babettechester;ND;11431;USA
189;3503 Monahan Way;;Carterborough;WV;53616;USA
190;309 Felecia Freeway;;Trompview;ME;26239;USA
